{"type": "FeatureCollection", "features": [ {"type": "Feature", "properties": {"norad_id": 66593, "name": "STARLINK-36031", "group": "last-30-days", "lat": 28.379436178418572, "lon": 9.704198519099997, "alt_km": 367.1219568985516, "timestamp": "2025-12-07T05:38:08.685346+00:00", "meta": {"OBJECT_NAME": "STARLINK-36031", "OBJECT_ID": "2025-270F", "EPOCH": "2025-12-06T14:00:01.999872", "MEAN_MOTION": 15.6850063, "ECCENTRICITY": 0.00017412, "INCLINATION": 42.999, "RA_OF_ASC_NODE": 229.0457, "ARG_OF_PERICENTER": 262.1878, "MEAN_ANOMALY": 153.6751, "EPHEMERIS_TYPE": 0, "CLASSIFICATION_TYPE": "U", "NORAD_CAT_ID": 66593, "ELEMENT_SET_NO": 999, "REV_AT_EPOCH": 341, "BSTAR": -0.01835075, "MEAN_MOTION_DOT": -0.01895795, "MEAN_MOTION_DDOT": 0}, "tle": {"line1": "1 66593U 25270F   25340.58335648 -.01895795  00000+0 -18351-1 0  9995", "line2": "2 66593  42.9990 229.0457 0001741 262.1878 153.6751 15.68500630  3410"}}, "geometry": {"type": "Point", "coordinates": [9.704198519099997, 28.379436178418572]}}, {"type": "Feature", "properties": {"norad_id": 66594, "name": "STARLINK-36032", "group": "last-30-days", "lat": 27.30350318806571, "lon": 11.492377084523746, "alt_km": 367.18018006507737, "timestamp": "2025-12-07T05:38:08.685357+00:00", "meta": {"OBJECT_NAME": "STARLINK-36032", "OBJECT_ID": "2025-270G", "EPOCH": "2025-12-06T14:00:01.999872", "MEAN_MOTION": 15.68503484, "ECCENTRICITY": 0.00015654, "INCLINATION": 42.9991, "RA_OF_ASC_NODE": 229.0408, "ARG_OF_PERICENTER": 261.4892, "MEAN_ANOMALY": 156.2931, "EPHEMERIS_TYPE": 0, "CLASSIFICATION_TYPE": "U", "NORAD_CAT_ID": 66594, "ELEMENT_SET_NO": 999, "REV_AT_EPOCH": 315, "BSTAR": -0.01842681, "MEAN_MOTION_DOT": -0.0190283, "MEAN_MOTION_DDOT": 0}, "tle": {"line1": "1 66594U 25270G   25340.58335648 -.01902830  00000+0 -18427-1 0  9999", "line2": "2 66594  42.9991 229.0408 0001565 261.4892 156.2931 15.68503484  3150"}}, "geometry": {"type": "Point", "coordinates": [11.492377084523746, 27.30350318806571]}}, {"type": "Feature", "properties": {"norad_id": 66595, "name": "STARLINK-35711", "group": "last-30-days", "lat": 26.20509915103654, "lon": 13.245256441216725, "alt_km": 367.40019062439933, "timestamp": "2025-12-07T05:38:08.685366+00:00", "meta": {"OBJECT_NAME": "STARLINK-35711", "OBJECT_ID": "2025-270H", "EPOCH": "2025-12-06T14:00:01.999872", "MEAN_MOTION": 15.68504419, "ECCENTRICITY": 0.00016853, "INCLINATION": 42.999, "RA_OF_ASC_NODE": 229.0356, "ARG_OF_PERICENTER": 262.2938, "MEAN_ANOMALY": 157.4063, "EPHEMERIS_TYPE": 0, "CLASSIFICATION_TYPE": "U", "NORAD_CAT_ID": 66595, "ELEMENT_SET_NO": 999, "REV_AT_EPOCH": 352, "BSTAR": -0.018453579, "MEAN_MOTION_DOT": -0.01905436, "MEAN_MOTION_DDOT": 0}, "tle": {"line1": "1 66595U 25270H   25340.58335648 -.01905436  00000+0 -18454-1 0  9995", "line2": "2 66595  42.9990 229.0356 0001685 262.2938 157.4063 15.68504419  3524"}}, "geometry": {"type": "Point", "coordinates": [13.245256441216725, 26.20509915103654]}}, {"type": "Feature", "properties": {"norad_id": 66596, "name": "STARLINK-35811", "group": "last-30-days", "lat": 25.082060614417816, "lon": 14.971196721050493, "alt_km": 367.516650569034, "timestamp": "2025-12-07T05:38:08.685376+00:00", "meta": {"OBJECT_NAME": "STARLINK-35811", "OBJECT_ID": "2025-270J", "EPOCH": "2025-12-06T14:00:01.999872", "MEAN_MOTION": 15.68505779, "ECCENTRICITY": 0.00015682, "INCLINATION": 42.9989, "RA_OF_ASC_NODE": 229.0311, "ARG_OF_PERICENTER": 263.5543, "MEAN_ANOMALY": 158.0608, "EPHEMERIS_TYPE": 0, "CLASSIFICATION_TYPE": "U", "NORAD_CAT_ID": 66596, "ELEMENT_SET_NO": 999, "REV_AT_EPOCH": 352, "BSTAR": -0.018447324, "MEAN_MOTION_DOT": -0.01904871, "MEAN_MOTION_DDOT": 0}, "tle": {"line1": "1 66596U 25270J   25340.58335648 -.01904871  00000+0 -18447-1 0  9990", "line2": "2 66596  42.9989 229.0311 0001568 263.5543 158.0608 15.68505779  3522"}}, "geometry": {"type": "Point", "coordinates": [14.971196721050493, 25.082060614417816]}}, {"type": "Feature", "properties": {"norad_id": 66597, "name": "STARLINK-35820", "group": "last-30-days", "lat": 23.941316390234864, "lon": 16.662244179167413, "alt_km": 367.63225227455496, "timestamp": "2025-12-07T05:38:08.685386+00:00", "meta": {"OBJECT_NAME": "STARLINK-35820", "OBJECT_ID": "2025-270K", "EPOCH": "2025-12-06T14:00:01.999872", "MEAN_MOTION": 15.68500105, "ECCENTRICITY": 0.00016049, "INCLINATION": 42.999, "RA_OF_ASC_NODE": 229.0261, "ARG_OF_PERICENTER": 262.3069, "MEAN_ANOMALY": 161.2289, "EPHEMERIS_TYPE": 0, "CLASSIFICATION_TYPE": "U", "NORAD_CAT_ID": 66597, "ELEMENT_SET_NO": 999, "REV_AT_EPOCH": 352, "BSTAR": -0.01838525, "MEAN_MOTION_DOT": -0.01898818, "MEAN_MOTION_DDOT": 0}, "tle": {"line1": "1 66597U 25270K   25340.58335648 -.01898818  00000+0 -18385-1 0  9995", "line2": "2 66597  42.9990 229.0261 0001604 262.3069 161.2289 15.68500105  3529"}}, "geometry": {"type": "Point", "coordinates": [16.662244179167413, 23.941316390234864]}}, {"type": "Feature", "properties": {"norad_id": 66598, "name": "STARLINK-35981", "group": "last-30-days", "lat": 22.782711615201563, "lon": 18.322685338652526, "alt_km": 367.7540064650402, "timestamp": "2025-12-07T05:38:08.685396+00:00", "meta": {"OBJECT_NAME": "STARLINK-35981", "OBJECT_ID": "2025-270L", "EPOCH": "2025-12-06T14:00:01.999872", "MEAN_MOTION": 15.68503037, "ECCENTRICITY": 0.00016737, "INCLINATION": 42.999, "RA_OF_ASC_NODE": 229.0212, "ARG_OF_PERICENTER": 260.8863, "MEAN_ANOMALY": 164.5606, "EPHEMERIS_TYPE": 0, "CLASSIFICATION_TYPE": "U", "NORAD_CAT_ID": 66598, "ELEMENT_SET_NO": 999, "REV_AT_EPOCH": 325, "BSTAR": -0.018382693, "MEAN_MOTION_DOT": -0.0189884, "MEAN_MOTION_DDOT": 0}, "tle": {"line1": "1 66598U 25270L   25340.58335648 -.01898840  00000+0 -18383-1 0  9999", "line2": "2 66598  42.9990 229.0212 0001673 260.8863 164.5606 15.68503037  3253"}}, "geometry": {"type": "Point", "coordinates": [18.322685338652526, 22.782711615201563]}}, {"type": "Feature", "properties": {"norad_id": 66599, "name": "STARLINK-35930", "group": "last-30-days", "lat": 21.60775174655136, "lon": 19.95473503921781, "alt_km": 367.9532665883971, "timestamp": "2025-12-07T05:38:08.685405+00:00", "meta": {"OBJECT_NAME": "STARLINK-35930", "OBJECT_ID": "2025-270M", "EPOCH": "2025-12-06T14:00:01.999872", "MEAN_MOTION": 15.68502285, "ECCENTRICITY": 0.00016511, "INCLINATION": 42.999, "RA_OF_ASC_NODE": 229.017, "ARG_OF_PERICENTER": 262.7363, "MEAN_ANOMALY": 164.6313, "EPHEMERIS_TYPE": 0, "CLASSIFICATION_TYPE": "U", "NORAD_CAT_ID": 66599, "ELEMENT_SET_NO": 999, "REV_AT_EPOCH": 341, "BSTAR": -0.01840643, "MEAN_MOTION_DOT": -0.01900944, "MEAN_MOTION_DDOT": 0}, "tle": {"line1": "1 66599U 25270M   25340.58335648 -.01900944  00000+0 -18406-1 0  9995", "line2": "2 66599  42.9990 229.0170 0001651 262.7363 164.6313 15.68502285  3417"}}, "geometry": {"type": "Point", "coordinates": [19.95473503921781, 21.60775174655136]}}, {"type": "Feature", "properties": {"norad_id": 66600, "name": "STARLINK-35980", "group": "last-30-days", "lat": 20.41652797123139, "lon": 21.560227576265756, "alt_km": 368.0303435228752, "timestamp": "2025-12-07T05:38:08.685417+00:00", "meta": {"OBJECT_NAME": "STARLINK-35980", "OBJECT_ID": "2025-270N", "EPOCH": "2025-12-06T14:00:01.999872", "MEAN_MOTION": 15.68503372, "ECCENTRICITY": 0.00016033, "INCLINATION": 42.999, "RA_OF_ASC_NODE": 229.0121, "ARG_OF_PERICENTER": 260.8874, "MEAN_ANOMALY": 168.3961, "EPHEMERIS_TYPE": 0, "CLASSIFICATION_TYPE": "U", "NORAD_CAT_ID": 66600, "ELEMENT_SET_NO": 999, "REV_AT_EPOCH": 331, "BSTAR": -0.018415695, "MEAN_MOTION_DOT": -0.01901833, "MEAN_MOTION_DDOT": 0}, "tle": {"line1": "1 66600U 25270N   25340.58335648 -.01901833  00000+0 -18416-1 0  9997", "line2": "2 66600  42.9990 229.0121 0001603 260.8874 168.3961 15.68503372  3316"}}, "geometry": {"type": "Point", "coordinates": [21.560227576265756, 20.41652797123139]}}, {"type": "Feature", "properties": {"norad_id": 66601, "name": "STARLINK-35978", "group": "last-30-days", "lat": 19.2095004850603, "lon": 23.14238950246021, "alt_km": 368.1977145954943, "timestamp": "2025-12-07T05:38:08.685427+00:00", "meta": {"OBJECT_NAME": "STARLINK-35978", "OBJECT_ID": "2025-270P", "EPOCH": "2025-12-06T14:00:01.999872", "MEAN_MOTION": 15.68474923, "ECCENTRICITY": 0.00017228, "INCLINATION": 42.999, "RA_OF_ASC_NODE": 229.0071, "ARG_OF_PERICENTER": 261.0606, "MEAN_ANOMALY": 170.1663, "EPHEMERIS_TYPE": 0, "CLASSIFICATION_TYPE": "U", "NORAD_CAT_ID": 66601, "ELEMENT_SET_NO": 999, "REV_AT_EPOCH": 325, "BSTAR": -0.018175235, "MEAN_MOTION_DOT": -0.01877896, "MEAN_MOTION_DDOT": 0}, "tle": {"line1": "1 66601U 25270P   25340.58335648 -.01877896  00000+0 -18175-1 0  9991", "line2": "2 66601  42.9990 229.0071 0001722 261.0606 170.1663 15.68474923  3251"}}, "geometry": {"type": "Point", "coordinates": [23.14238950246021, 19.2095004850603]}}, {"type": "Feature", "properties": {"norad_id": 66602, "name": "STARLINK-36050", "group": "last-30-days", "lat": 17.991550859948905, "lon": 24.698168937027805, "alt_km": 368.35619136428613, "timestamp": "2025-12-07T05:38:08.685437+00:00", "meta": {"OBJECT_NAME": "STARLINK-36050", "OBJECT_ID": "2025-270Q", "EPOCH": "2025-12-06T14:00:01.999872", "MEAN_MOTION": 15.68500986, "ECCENTRICITY": 0.00016569, "INCLINATION": 42.9991, "RA_OF_ASC_NODE": 229.0022, "ARG_OF_PERICENTER": 261.5336, "MEAN_ANOMALY": 171.5862, "EPHEMERIS_TYPE": 0, "CLASSIFICATION_TYPE": "U", "NORAD_CAT_ID": 66602, "ELEMENT_SET_NO": 999, "REV_AT_EPOCH": 331, "BSTAR": -0.018396851, "MEAN_MOTION_DOT": -0.0189998, "MEAN_MOTION_DDOT": 0}, "tle": {"line1": "1 66602U 25270Q   25340.58335648 -.01899980  00000+0 -18397-1 0  9996", "line2": "2 66602  42.9991 229.0022 0001656 261.5336 171.5862 15.68500986  3312"}}, "geometry": {"type": "Point", "coordinates": [24.698168937027805, 17.991550859948905]}}]}